QIANFAN-41              
1 62242U 24232F   26005.46270058  .00000073  00000+0  93941-4 0  9993
2 62242  89.0003  38.8019 0015770 119.6523 240.6201 13.50982178102455
QIANFAN-42              
1 62243U 24232G   26005.51557987  .00000332  00000+0  13705-3 0  9996
2 62243  88.9996  34.6391 0015329  15.6565 344.5098 14.24504260104750
QIANFAN-43              
1 62244U 24232H   26005.45856054  .00000072  00000+0  92752-4 0  9998
2 62244  89.0008  38.8687 0017207 124.6475 235.6301 13.50981100 71063
QIANFAN-44              
1 62245U 24232J   26005.44622895  .00000082  00000+0  10740-3 0  9999
2 62245  89.0006  38.6803 0015471 121.6710 238.5952 13.50983322102539
QIANFAN-45              
1 62246U 24232K   26005.48741300  .00000085  00000+0  11280-3 0  9990
2 62246  89.0010  38.8235 0016145 121.3717 238.9016 13.50979325102464
QIANFAN-46              
1 62247U 24232L   26005.51206132  .00000077  00000+0  99921-4 0  9994
2 62247  89.0006  38.8891 0016103 126.2685 233.9957 13.50981218102429
QIANFAN-47              
1 62248U 24232M   26005.44215057  .00000079  00000+0  10396-3 0  9993
2 62248  89.0002  38.8282 0016544 125.7825 234.4867 13.50981398102446
QIANFAN-48              
1 62249U 24232N   26005.47914048  .00000076  00000+0  98745-4 0  9995
2 62249  89.0005  38.8271 0018751 128.5251 231.7585 13.50983041102459
